{
    "links": {
        "self": "http://www.neowsapp.com/rest/v1/neo/3468533?api_key=iIulBulltgU6a56xZRHN4H3l9WmuAYTsLGpBGhQ2"
    },
    "id": "3468533",
    "neo_reference_id": "3468533",
    "name": "(2009 SS104)",
    "designation": "2009 SS104",
    "nasa_jpl_url": "http://ssd.jpl.nasa.gov/sbdb.cgi?sstr=3468533",
    "absolute_magnitude_h": 21.0,
    "estimated_diameter": {
        "kilometers": {
            "estimated_diameter_min": 0.1677084622,
            "estimated_diameter_max": 0.3750075218
        },
        "meters": {
            "estimated_diameter_min": 167.7084621628,
            "estimated_diameter_max": 375.0075217981
        },
        "miles": {
            "estimated_diameter_min": 0.1042091748,
            "estimated_diameter_max": 0.2330187988
        },
        "feet": {
            "estimated_diameter_min": 550.2246310023,
            "estimated_diameter_max": 1230.3396778159
        }
    },
    "is_potentially_hazardous_asteroid": false,
    "close_approach_data": [
        {
            "close_approach_date": "2009-10-10",
            "close_approach_date_full": "2009-Oct-10 07:28",
            "epoch_date_close_approach": 1255159680000,
            "relative_velocity": {
                "kilometers_per_second": "9.2976294019",
                "kilometers_per_hour": "33471.4658467001",
                "miles_per_hour": "20797.8672090232"
            },
            "miss_distance": {
                "astronomical": "0.3012062064",
                "lunar": "117.1692142896",
                "kilometers": "45059806.908220368",
                "miles": "27998865.6881143584"
            },
            "orbiting_body": "Earth"
        }
    ],
    "orbital_data": {
        "orbit_id": "16",
        "orbit_determination_date": "2017-04-06 08:59:46",
        "first_observation_date": "2009-09-26",
        "last_observation_date": "2009-10-27",
        "data_arc_in_days": 31,
        "observations_used": 59,
        "orbit_uncertainty": "7",
        "minimum_orbit_intersection": ".287328",
        "jupiter_tisserand_invariant": "3.162",
        "epoch_osculation": "2459000.5",
        "eccentricity": ".5112173664237727",
        "semi_major_axis": "2.608109368728763",
        "inclination": "16.43663104608036",
        "ascending_node_longitude": "187.4508147456458",
        "orbital_period": "1538.463246981108",
        "perihelion_distance": "1.274798565902076",
        "perihelion_argument": "198.8104355930469",
        "aphelion_distance": "3.941420171555449",
        "perihelion_time": "2459744.520023968010",
        "mean_anomaly": "185.8995077366493",
        "mean_motion": ".2339997401344621",
        "equinox": "J2000",
        "orbit_class": {
            "orbit_class_type": "AMO",
            "orbit_class_description": "Near-Earth asteroid orbits similar to that of 1221 Amor",
            "orbit_class_range": "1.017 AU < q (perihelion) < 1.3 AU"
        }
    },
    "is_sentry_object": false
}